{
  "norad_id": 60097,
  "name": "STARLINK-32003",
  "history": [
    {
      "epoch": "2026-03-28T22:15:25.418592",
      "apogee_km": 476.11241199279266,
      "perigee_km": 474.37836918032554,
      "latitude_deg": 5.699304565927517,
      "longitude_deg": -81.27175712003373,
      "semi_major_axis_km": 6853.382390586558,
      "eccentricity": 0.00012651,
      "inclination_deg": 53.161,
      "raan_deg": 307.6388,
      "arg_perigee_deg": 90.541,
      "mean_anomaly_deg": 269.5736,
      "mean_motion_rev_day": 15.30189845
    },
    {
      "epoch": "2026-03-28T23:49:28.550784",
      "apogee_km": 476.1115431463086,
      "perigee_km": 474.3748965985933,
      "latitude_deg": -42.85552766623298,
      "longitude_deg": -75.0016102399677,
      "semi_major_axis_km": 6853.380219872451,
      "eccentricity": 0.0001267,
      "inclination_deg": 53.161,
      "raan_deg": 307.3353,
      "arg_perigee_deg": 90.9691,
      "mean_anomaly_deg": 269.1455,
      "mean_motion_rev_day": 15.30190572
    }
  ]
}